0 COSMOS 886 DEB
1 09723U 76126U   13282.39965712  .00002150  00000-0  24918-2 0  2583
2 09723 065.7582 260.9453 0741732 067.2266 079.3296 12.89179913698670
0 COSMOS 886 DEB
1 09723U 76126U   13284.40180679  .00002338  00000-0  27007-2 0  2599
2 09723 065.7581 256.6300 0741993 066.3808 011.4291 12.89187939698931
0 COSMOS 886 DEB
1 09723U 76126U   13286.96010950  .00002604  00000-0  29957-2 0  2600
2 09723 065.7584 251.1160 0742315 065.3036 004.7627 12.89197743699268
0 COSMOS 886 DEB
1 09723U 76126U   13289.05566404  .00003315  00000-0  37951-2 0  2617
2 09723 065.7586 246.6001 0742202 064.4301 010.5150 12.89211057699534
0 COSMOS 886 DEB
1 09723U 76126U   13291.07352919  .00003338  00000-0  38162-2 0  2627
2 09723 065.7590 242.2508 0742438 063.5781 015.8020 12.89221169699793
0 COSMOS 886 DEB
1 09723U 76126U   13293.09203316  .00003274  00000-0  37401-2 0  2632
2 09723 065.7589 237.8999 0742682 062.7311 024.1269 12.89232323700050
0 COSMOS 886 DEB
1 09723U 76126U   13295.10974725  .00003900  00000-0  44370-2 0  2645
2 09723 065.7587 233.5511 0742960 061.8858 028.8785 12.89243546700318
